export const glonassOMMs = [
  {
    "OBJECT_NAME": "COSMOS 1413 (GLONASS)",
    "OBJECT_ID": "1982-100A",
    "EPOCH": "2025-06-18T09:21:05.254560",
    "MEAN_MOTION": 2.13866655333414,
    "ECCENTRICITY": 0.0007922,
    "INCLINATION": 64.6555,
    "RA_OF_ASC_NODE": 79.4349,
    "ARG_OF_PERICENTER": 23.3614,
    "MEAN_ANOMALY": 145.1862,
    "BSTAR": 0.00000,
    "MEAN_MOTION_DOT": -0.00000026,
    "MEAN_MOTION_DDOT": 0.0,
    "NORAD_CAT_ID": 13603
  },

  {
  "OBJECT_NAME": "COSMOS 1414 (GLONASS)",
  "OBJECT_ID": "1982-100D",
  "EPOCH": "2025-06-18T06:36:45.406368",
  "MEAN_MOTION": 2.13103762332161,
  "ECCENTRICITY": 0.0078415,
  "INCLINATION": 64.5824,
  "RA_OF_ASC_NODE": 83.6954,
  "ARG_OF_PERICENTER": 31.9773,
  "MEAN_ANOMALY": 138.3397,
  "BSTAR": 0.00000,
  "MEAN_MOTION_DOT": -0.00000019,
  "MEAN_MOTION_DDOT": 0.0,
  "NORAD_CAT_ID": 13606
},

{
  "OBJECT_NAME": "COSMOS 1415 (GLONASS)",
  "OBJECT_ID": "1982-100E",
  "EPOCH": "2025-06-17T08:00:04.556576",
  "MEAN_MOTION": 2.13810132333179,
  "ECCENTRICITY": 0.0004910,
  "INCLINATION": 64.6382,
  "RA_OF_ASC_NODE": 79.4105,
  "ARG_OF_PERICENTER": 22.9184,
  "MEAN_ANOMALY": 145.6885,
  "BSTAR": 0.00000,
  "MEAN_MOTION_DOT": -0.00000020,
  "MEAN_MOTION_DDOT": 0.0,
  "NORAD_CAT_ID": 13607
},

{
  "OBJECT_NAME": "COSMOS 1490 (GLONASS)",
  "OBJECT_ID": "1983-084A",
  "EPOCH": "2025-06-18T12:02:34.464000",
  "MEAN_MOTION": 2.13103187325713,
  "ECCENTRICITY": 0.0015231,
  "INCLINATION": 64.6445,
  "RA_OF_ASC_NODE": 85.2558,
  "ARG_OF_PERICENTER": 14.3968,
  "MEAN_ANOMALY": 158.5535,
  "BSTAR": 0.00000,
  "MEAN_MOTION_DOT": -0.00000019,
  "MEAN_MOTION_DDOT": 0.0,
  "NORAD_CAT_ID": 14258
},

{
  "OBJECT_NAME": "COSMOS 1491 (GLONASS)",
  "OBJECT_ID": "1983-084B",
  "EPOCH": "2025-06-15T07:08:15.724192",
  "MEAN_MOTION": 2.15434680328272,
  "ECCENTRICITY": 0.0020165,
  "INCLINATION": 64.7873,
  "RA_OF_ASC_NODE": 70.8944,
  "ARG_OF_PERICENTER": 308.3842,
  "MEAN_ANOMALY": 236.4451,
  "BSTAR": 0.00000,
  "MEAN_MOTION_DOT": -0.00000019,
  "MEAN_MOTION_DDOT": 0.0,
  "NORAD_CAT_ID": 14259
},

{
  "OBJECT_NAME": "COSMOS 1492 (GLONASS)",
  "OBJECT_ID": "1983-084C",
  "EPOCH": "2025-06-17T06:35:00.064384",
  "MEAN_MOTION": 2.12758899323831,
  "ECCENTRICITY": 0.0001622,
  "INCLINATION": 64.6070,
  "RA_OF_ASC_NODE": 87.0143,
  "ARG_OF_PERICENTER": 0.3111,
  "MEAN_ANOMALY": 187.2113,
  "BSTAR": 0.00000,
  "MEAN_MOTION_DOT": -0.00000003,
  "MEAN_MOTION_DDOT": 0.0,
  "NORAD_CAT_ID": 14260
},

{
  "OBJECT_NAME": "COSMOS 1519 (GLONASS)",
  "OBJECT_ID": "1983-127A",
  "EPOCH": "2025-06-17T07:16:58.076512",
  "MEAN_MOTION": 2.13099630263389,
  "ECCENTRICITY": 0.0010438,
  "INCLINATION": 66.5630,
  "RA_OF_ASC_NODE": 341.0026,
  "ARG_OF_PERICENTER": 181.4864,
  "MEAN_ANOMALY": 174.5538,
  "BSTAR": 0.00000,
  "MEAN_MOTION_DOT": -0.00000034,
  "MEAN_MOTION_DDOT": 0.0,
  "NORAD_CAT_ID": 14590
},

{
  "OBJECT_NAME": "COSMOS 1520 (GLONASS)",
  "OBJECT_ID": "1983-127B",
  "EPOCH": "2025-06-13T17:18:39.753600",
  "MEAN_MOTION": 2.13102718263128,
  "ECCENTRICITY": 0.0023220,
  "INCLINATION": 66.5555,
  "RA_OF_ASC_NODE": 341.0053,
  "ARG_OF_PERICENTER": 171.9832,
  "MEAN_ANOMALY": 5.7133,
  "BSTAR": 0.00000,
  "MEAN_MOTION_DOT": -0.00000038,
  "MEAN_MOTION_DDOT": 0.0,
  "NORAD_CAT_ID": 14591
},

{
  "OBJECT_NAME": "COSMOS 1521 (GLONASS)",
  "OBJECT_ID": "1983-127C",
  "EPOCH": "2025-06-18T02:07:43.753728",
  "MEAN_MOTION": 2.13837164323848,
  "ECCENTRICITY": 0.0061788,
  "INCLINATION": 66.4541,
  "RA_OF_ASC_NODE": 336.7533,
  "ARG_OF_PERICENTER": 192.0693,
  "MEAN_ANOMALY": 230.0586,
  "BSTAR": 0.00000,
  "MEAN_MOTION_DOT": -0.00000038,
  "MEAN_MOTION_DDOT": 0.0,
  "NORAD_CAT_ID": 14592
},

{
  "OBJECT_NAME": "COSMOS 1554 (GLONASS)",
  "OBJECT_ID": "1984-047A",
  "EPOCH": "2025-06-15T04:28:38.381120",
  "MEAN_MOTION": 2.13099445,
  "ECCENTRICITY": 0.0016882,
  "INCLINATION": 66.5143,
  "RA_OF_ASC_NODE": 340.0560,
  "ARG_OF_PERICENTER": 214.8365,
  "MEAN_ANOMALY": 358.5596,
  "BSTAR": 0.00000,
  "MEAN_MOTION_DOT": -0.00000033,
  "MEAN_MOTION_DDOT": 0.0,
  "NORAD_CAT_ID": 14977
}

]