13603,COSMOS 1413 [GLONASS],1982,673.32,-1.0,-,64.66,Inactive,0,MEO,Kazakhstan,Russia/USSR,Unknown,Unknown,Unknown,1 13603U 82100A   25170.38914265 -.00000026  00000+0  00000+0 0  9994,2 13603  64.6555  79.4349 0007922  23.3614 145.1862  2.13866655333414,2.13866655,0.0007922,MEO
13606,COSMOS 1414 [GLONASS],1982,675.73,-1.0,-,64.58,Inactive,0,MEO,Kazakhstan,Russia/USSR,Unknown,Unknown,Unknown,1 13606U 82100D   25170.27531237 -.00000019  00000+0  00000+0 0  9991,2 13606  64.5824  83.6954 0078415  31.9773 138.3397  2.13103762332161,2.13103762,0.0078415,MEO
13607,COSMOS 1415 [GLONASS],1982,673.49,-1.0,-,64.64,Inactive,0,MEO,Kazakhstan,Russia/USSR,Unknown,Unknown,Unknown,1 13607U 82100E   25169.83354709 -.00000020  00000+0  00000+0 0  9991,2 13607  64.6382  79.4105 0004910  22.9184 145.6885  2.13810132333179,2.13810132,0.000491,MEO
14258,COSMOS 1490 [GLONASS],1983,675.73,-1.0,-,64.64,Inactive,0,MEO,Kazakhstan,Russia/USSR,Unknown,Unknown,Unknown,1 14258U 83084A   25170.50101050 -.00000019  00000+0  00000+0 0  9999,2 14258  64.6445  85.2558 0015231  14.3968 158.5535  2.13103187325713,2.13103187,0.0015231,MEO
14259,COSMOS 1491 [GLONASS],1983,668.42,-1.0,-,64.79,Inactive,0,MEO,Kazakhstan,Russia/USSR,Unknown,Unknown,Unknown,1 14259U 83084B   25168.29753378 -.00000019  00000+0  00000+0 0  9999,2 14259  64.7873  70.8944 0020165 308.3842 236.4451  2.15434680328272,2.1543468,0.0020165,MEO
14260,COSMOS 1492 [GLONASS],1983,676.82,-1.0,-,64.61,Inactive,0,MEO,Kazakhstan,Russia/USSR,Unknown,Unknown,Unknown,1 14260U 83084C   25169.27453756 -.00000003  00000+0  00000+0 0  9990,2 14260  64.6070  87.0143 0001622   0.3111 187.2113  2.12758899323831,2.12758899,0.0001622,MEO
14590,COSMOS 1519 [GLONASS],1983,675.74,-1.0,-,66.56,Inactive,0,MEO,Kazakhstan,Russia/USSR,Unknown,Unknown,Unknown,1 14590U 83127A   25169.30322458 -.00000034  00000+0  00000+0 0  9996,2 14590  66.5630 341.0026 0010438 181.4864 174.5538  2.13099630263389,2.1309963,0.0010438,MEO
14591,COSMOS 1520 [GLONASS],1983,675.73,-1.0,-,66.56,Inactive,0,MEO,Kazakhstan,Russia/USSR,Unknown,Unknown,Unknown,1 14591U 83127B   25165.72075343 -.00000038  00000+0  00000+0 0  9991,2 14591  66.5555 341.0053 0023220 171.9832   5.7133  2.13102718263128,2.13102718,0.002322,MEO
14592,COSMOS 1521 [GLONASS],1983,673.41,-1.0,-,66.45,Inactive,0,MEO,Kazakhstan,Russia/USSR,Unknown,Unknown,Unknown,1 14592U 83127C   25170.58965527 -.00000038  00000+0  00000+0 0  9994,2 14592  66.4541 336.7533 0061788 192.0693 230.0586  2.13837164323848,2.13837164,0.0061788,MEO
14977,COSMOS 1554 [GLONASS],1984,675.74,-1.0,-,66.51,Inactive,0,MEO,Kazakhstan,Russia/USSR,Unknown,Unknown,Unknown,1 14977U 84047A   25168.68690905 -.00000033  00000+0  00000+0 0  9991,2 14977  66.5143 340.0560 0016882 214.8365 358.5596  2.13099445 96112,2.13099445,0.0016882,MEO
